MEAN_MOTION;ECCENTRICITY;INCLINATION;RA_OF_ASC_NODE;ARG_OF_PERICENTER;MEAN_ANOMALY;BSTAR;MEAN_MOTION_DOT;MEAN_MOTION_DDOT;TYPE
14.3421927;0.0002379;86.3964;52.7284;82.8981;277.2486;2.5701E-5;9.2E-7;0;Iridium
14.34219303;0.000237;86.3965;52.5242;82.824;277.3225;2.3934E-5;8.7E-7;0;Iridium
14.3421935;0.0002367;86.3966;52.32;82.6326;277.5139;2.2413E-5;8.3E-7;0;Iridium
14.34219364;0.0002359;86.3967;52.1451;82.4273;277.7191;2.0743E-5;7.8E-7;0;Iridium
14.34215785;0.0002384;86.3969;51.9116;80.7835;279.363;1.8831E-5;7.3E-7;0;Iridium
14.342156;0.0002366;86.3968;51.6784;81.6805;278.4659;1.7693E-5;6.9E-7;0;Iridium
14.342156;0.0002366;86.3968;51.6784;81.6805;278.4659;1.7693E-5;6.9E-7;0;Iridium
14.34215637;0.0002364;86.3968;51.5034;81.6301;278.5162;1.7033E-5;6.7E-7;0;Iridium
14.34215772;0.000236;86.3969;51.27;81.7503;278.396;1.9699E-5;7.5E-7;0;Iridium
14.34215696;0.0002368;86.397;51.1825;81.5242;278.6222;7.8574E-6;4.2E-7;0;Iridium
14.34215813;0.0002353;86.3971;50.8616;81.5568;278.5894;1.3509E-5;5.8E-7;0;Iridium
14.34215825;0.000235;86.3972;50.7158;81.4264;278.7198;1.2404E-5;5.5E-7;0;Iridium
14.34215901;0.0002337;86.3973;50.4533;81.2829;278.8631;1.3159E-5;5.7E-7;0;Iridium
14.34215904;0.000233;86.3974;50.2201;81.1235;279.0225;9.9346E-6;4.8E-7;0;Iridium
14.34215935;0.0002317;86.3975;50.0159;80.9772;279.1686;1.0464E-5;4.9E-7;0;Iridium
14.34215935;0.0002317;86.3975;50.0159;80.9772;279.1686;1.0464E-5;4.9E-7;0;Iridium
14.34215971;0.000231;86.3976;49.8118;80.86;279.2857;1.0692E-5;5.0E-7;0;Iridium
14.34216036;0.0002298;86.3978;49.4035;80.6935;279.452;1.1614E-5;5.2E-7;0;Iridium
14.34216149;0.0002292;86.3979;49.1411;80.7237;279.4218;1.668E-5;6.6E-7;0;Iridium
14.34216177;0.0002288;86.3979;49.0245;80.5369;279.6085;1.7213E-5;6.8E-7;0;Iridium
14.34216296;0.000228;86.3981;48.7329;80.4532;279.6922;2.1642E-5;8.0E-7;0;Iridium
14.34216357;0.0002275;86.3981;48.558;80.2711;279.8742;2.3055E-5;8.4E-7;0;Iridium
14.34216421;0.0002266;86.3982;48.3247;80.2469;279.8983;2.3895E-5;8.7E-7;0;Iridium
14.34216408;0.0002263;86.3983;48.1498;80.1931;279.952;1.9741E-5;7.5E-7;0;Iridium
14.34216444;0.0002253;86.3984;47.8874;80.1166;280.0284;1.8708E-5;7.2E-7;0;Iridium
14.34216444;0.0002253;86.3984;47.8874;80.1166;280.0284;1.8708E-5;7.2E-7;0;Iridium
14.34216467;0.0002248;86.3985;47.7125;80.0599;280.085;1.7487E-5;6.9E-7;0;Iridium
14.34216537;0.000224;86.3985;47.4792;79.9611;280.1838;1.913E-5;7.3E-7;0;Iridium
14.34216524;0.0002241;86.3986;47.4501;79.9417;280.2032;1.8365E-5;7.1E-7;0;Iridium
14.34216535;0.0002234;86.3986;47.3044;79.814;280.3308;1.5545E-5;6.3E-7;0;Iridium
14.3421665;0.0002226;86.3987;47.0711;79.8226;280.3221;1.9758E-5;7.5E-7;0;Iridium
14.34216658;0.0002225;86.3987;47.042;79.8026;280.3421;2.0048E-5;7.6E-7;0;Iridium
14.34216693;0.0002219;86.3988;46.8963;79.6798;280.4648;1.8318E-5;7.1E-7;0;Iridium
14.34216762;0.0002207;86.3989;46.6922;79.6307;280.5137;1.8878E-5;7.3E-7;0;Iridium
14.34216837;0.00022;86.3989;46.4882;79.5861;280.5583;1.9496E-5;7.4E-7;0;Iridium
14.34216918;0.0002192;86.399;46.2258;79.6169;280.5274;1.9352E-5;7.4E-7;0;Iridium
14.34216918;0.0002192;86.399;46.2258;79.6169;280.5274;1.9352E-5;7.4E-7;0;Iridium
14.34216971;0.0002187;86.3991;46.051;79.6256;280.5187;1.8995E-5;7.3E-7;0;Iridium
14.34217027;0.0002178;86.3992;45.8178;79.5703;280.5738;1.7881E-5;7.0E-7;0;Iridium
14.34217053;0.0002172;86.3993;45.6429;79.6184;280.5256;1.6281E-5;6.5E-7;0;Iridium
14.34217082;0.0002164;86.3994;45.3806;79.5951;280.5489;1.3655E-5;5.8E-7;0;Iridium
14.34217082;0.0002164;86.3994;45.3806;79.5951;280.5489;1.3655E-5;5.8E-7;0;Iridium
14.34217094;0.0002159;86.3994;45.2349;79.6826;280.4613;1.1782E-5;5.3E-7;0;Iridium
14.34217095;0.0002156;86.3996;44.9727;79.4651;280.6787;8.5601E-6;4.4E-7;0;Iridium
14.34217131;0.0002149;86.3997;44.7978;79.5411;280.6027;9.4343E-6;4.6E-7;0;Iridium
14.342172;0.0002145;86.3998;44.5356;79.3583;280.7854;1.1695E-5;5.3E-7;0;Iridium
14.34217238;0.0002137;86.3999;44.3899;79.3396;280.804;1.1491E-5;5.2E-7;0;Iridium
14.34217371;0.0002129;86.4;44.1859;79.4496;280.694;1.8245E-5;7.1E-7;0;Iridium
14.34217414;0.0002121;86.4;43.9819;79.4874;280.656;1.8134E-5;7.1E-7;0;Iridium
14.34217489;0.0002108;86.4001;43.7779;79.4391;280.7042;2.0249E-5;7.6E-7;0;Iridium
14.34217535;0.0002102;86.4001;43.574;79.5989;280.5444;2.0303E-5;7.7E-7;0;Iridium
14.34217535;0.0002102;86.4001;43.574;79.5989;280.5444;2.0303E-5;7.7E-7;0;Iridium
14.34217621;0.0002085;86.4003;43.1369;79.5519;280.5912;2.0069E-5;7.6E-7;0;Iridium
14.3421762;0.0002084;86.4003;43.1077;79.5388;280.6042;2.0041E-5;7.6E-7;0;Iridium
14.34217669;0.0002075;86.4004;42.962;79.614;280.5289;2.1159E-5;7.9E-7;0;Iridium
14.34217747;0.0002067;86.4004;42.729;79.7257;280.4171;2.227E-5;8.2E-7;0;Iridium
14.34217802;0.0002053;86.4005;42.525;79.7736;280.3691;2.3024E-5;8.4E-7;0;Iridium
14.34217802;0.0002053;86.4005;42.525;79.7736;280.3691;2.3024E-5;8.4E-7;0;Iridium
14.34217857;0.0002046;86.4005;42.3211;80.0961;280.0466;2.3066E-5;8.4E-7;0;Iridium
14.34217954;0.0002036;86.4006;42.1171;80.1262;280.0164;2.5185E-5;9.0E-7;0;Iridium
14.34218055;0.0002029;86.4006;41.884;80.2106;279.9319;2.6059E-5;9.3E-7;0;Iridium
14.34218128;0.000202;86.4007;41.7092;80.3231;279.8193;2.7225E-5;9.6E-7;0;Iridium
14.34218188;0.000202;86.4008;41.4762;80.0441;280.0982;2.5543E-5;9.1E-7;0;Iridium
14.3421824;0.0002012;86.4008;41.2722;79.7955;280.3468;2.446E-5;8.8E-7;0;Iridium
14.3421824;0.0002012;86.4008;41.2722;79.7955;280.3468;2.446E-5;8.8E-7;0;Iridium
14.34218293;0.0002007;86.4008;41.0683;80.2109;279.9313;2.3036E-5;8.4E-7;0;Iridium
14.34218421;0.0001999;86.4009;40.8352;80.498;279.6441;2.4682E-5;8.9E-7;0;Iridium
14.34218421;0.0001999;86.4009;40.8352;80.498;279.6441;2.4682E-5;8.9E-7;0;Iridium
14.34218429;0.0001999;86.401;40.6313;80.8307;279.3115;2.0989E-5;7.9E-7;0;Iridium
14.342185;0.0001992;86.401;40.4566;80.8553;279.2868;2.1119E-5;7.9E-7;0;Iridium
14.34218576;0.0001992;86.4011;40.2235;80.9449;279.1972;1.9869E-5;7.5E-7;0;Iridium
14.34218621;0.0001986;86.4012;40.0487;80.8968;279.2453;1.9232E-5;7.4E-7;0;Iridium
14.34218664;0.0001984;86.4012;39.8158;80.9217;279.2203;1.6536E-5;6.6E-7;0;Iridium
14.34218695;0.0001977;86.4013;39.6118;80.9398;279.2022;1.4919E-5;6.2E-7;0;Iridium
14.34218695;0.0001977;86.4013;39.6118;80.9398;279.2022;1.4919E-5;6.2E-7;0;Iridium
14.34218725;0.0001976;86.4014;39.3787;81.3548;278.7871;1.329E-5;5.7E-7;0;Iridium
14.34218862;0.0001972;86.4014;38.9709;82.242;277.9;1.4858E-5;6.1E-7;0;Iridium
14.34218993;0.0001962;86.4015;38.5921;82.5732;277.5687;1.7423E-5;6.9E-7;0;Iridium
14.34219098;0.0001956;86.4015;38.3591;82.9279;277.2139;2.0446E-5;7.7E-7;0;Iridium
14.34219098;0.0001956;86.4015;38.3591;82.9279;277.2139;2.0446E-5;7.7E-7;0;Iridium
14.34219158;0.0001954;86.4015;38.1552;83.1526;276.9892;2.1382E-5;8.0E-7;0;Iridium
14.34219186;0.0001946;86.4016;37.9513;83.326;276.8157;2.1318E-5;7.9E-7;0;Iridium
14.3421922;0.0001947;86.4017;37.7184;83.7655;276.3762;2.1173E-5;7.9E-7;0;Iridium
14.34219262;0.000194;86.4017;37.5436;83.7992;276.3425;2.1599E-5;8.0E-7;0;Iridium
14.34219281;0.000194;86.4017;37.3106;84.0909;276.0508;2.0201E-5;7.6E-7;0;Iridium
14.34219431;0.0001931;86.4017;36.961;83.6948;276.4468;2.3181E-5;8.5E-7;0;Iridium
14.34219439;0.0001931;86.4017;36.9027;83.6481;276.4935;2.2408E-5;8.3E-7;0;Iridium
14.34219524;0.000193;86.4017;36.7279;84.0695;276.072;2.4037E-5;8.7E-7;0;Iridium
14.34219524;0.000193;86.4017;36.7279;84.0695;276.072;2.4037E-5;8.7E-7;0;Iridium
14.34219579;0.0001926;86.4017;36.4949;84.2096;275.932;2.3023E-5;8.4E-7;0;Iridium
14.34219706;0.0001921;86.4018;36.2911;84.361;275.7805;2.6151E-5;9.3E-7;0;Iridium
14.34219836;0.000191;86.4018;35.8833;84.7471;275.3943;2.5121E-5;9.0E-7;0;Iridium
14.34219918;0.0001916;86.4018;35.6795;84.9203;275.2212;2.4953E-5;9.0E-7;0;Iridium
14.34219984;0.0001921;86.4018;35.4464;85.5643;274.5773;2.4255E-5;8.8E-7;0;Iridium
14.34220015;0.0001926;86.4019;35.2717;85.6957;274.4459;2.2154E-5;8.2E-7;0;Iridium
14.34219989;0.000193;86.4019;35.2135;85.8119;274.3297;2.0096E-5;7.6E-7;0;Iridium
14.34220058;0.0001928;86.4019;35.0096;85.9293;274.2123;1.9897E-5;7.5E-7;0;Iridium
14.34220072;0.0001932;86.4018;34.8058;86.0022;274.1395;1.6593E-5;6.6E-7;0;Iridium
14.34220182;0.0001937;86.4018;34.6018;86.3512;273.7905;1.8745E-5;7.2E-7;0;Iridium
14.34220231;0.0001942;86.4018;34.3688;86.3811;273.7607;1.7836E-5;7.0E-7;0;Iridium
14.34220332;0.0001941;86.4018;33.9902;86.5929;273.5489;1.6542E-5;6.6E-7;0;Iridium
14.3422037;0.0001938;86.4019;33.7863;86.5922;273.5495;1.6379E-5;6.6E-7;0;Iridium
14.34220404;0.0001937;86.4019;33.5824;86.7102;273.4316;1.5296E-5;6.3E-7;0;Iridium
14.34220471;0.0001934;86.4019;33.3785;86.8672;273.2745;1.649E-5;6.6E-7;0;Iridium
14.34215597;0.0002015;86.4018;33.1455;84.9391;275.2035;1.6602E-5;6.6E-7;0;Iridium
14.34215257;0.0001963;86.4019;32.9706;85.601;274.541;3.1269E-5;1.07E-6;0;Iridium
14.34215319;0.0001977;86.4019;32.7377;86.0104;274.1317;3.1114E-5;1.07E-6;0;Iridium
14.34215174;0.0001973;86.4019;32.5629;86.1828;273.9594;1.7569E-6;2.5E-7;0;Iridium
14.34215202;0.0001974;86.4018;32.33;86.4364;273.7057;2.3637E-6;2.6E-7;0;Iridium
14.34215356;0.0001973;86.4018;32.1261;86.8014;273.3408;1.6509E-5;6.6E-7;0;Iridium
14.34215356;0.0001973;86.4018;32.1261;86.8014;273.3408;1.6509E-5;6.6E-7;0;Iridium
14.34215356;0.0001973;86.4018;32.1261;86.8014;273.3408;1.6509E-5;6.6E-7;0;Iridium
14.34215415;0.0001977;86.4018;31.9222;87.5812;272.561;1.7972E-5;7.0E-7;0;Iridium
14.34215629;0.0001981;86.4017;31.5435;88.1937;271.9485;2.677E-5;9.5E-7;0;Iridium
14.3421562;0.0001983;86.4017;31.4852;88.3512;271.7911;2.4896E-5;8.9E-7;0;Iridium
14.34215743;0.0001982;86.4016;31.3105;88.4269;271.7153;2.9283E-5;1.02E-6;0;Iridium
14.34215836;0.0001985;86.4016;31.0775;88.5137;271.6286;2.9204E-5;1.02E-6;0;Iridium
14.34215882;0.0001984;86.4016;30.9027;88.7423;271.4;2.8915E-5;1.01E-6;0;Iridium
14.3421593;0.0001991;86.4016;30.6697;89.0775;271.0649;2.6522E-5;9.4E-7;0;Iridium
14.34215994;0.0001989;86.4015;30.4658;89.3457;270.7967;2.6127E-5;9.3E-7;0;Iridium
14.34215994;0.0001989;86.4015;30.4658;89.3457;270.7967;2.6127E-5;9.3E-7;0;Iridium
